[{"OBJECT_NAME":"STARLINK-31974","OBJECT_ID":"2024-100A","EPOCH":"2026-03-09T05:03:21.111264","MEAN_MOTION":15.27569115,"ECCENTRICITY":7.525e-5,"INCLINATION":42.9979,"RA_OF_ASC_NODE":128.0999,"ARG_OF_PERICENTER":191.7836,"MEAN_ANOMALY":168.2999,"EPHEMERIS_TYPE":0,"CLASSIFICATION_TYPE":"U","NORAD_CAT_ID":59885,"ELEMENT_SET_NO":999,"REV_AT_EPOCH":10098,"BSTAR":1.5241405e-5,"MEAN_MOTION_DOT":1.58e-6,"MEAN_MOTION_DDOT":0},{"OBJECT_NAME":"TEVEL2-1","OBJECT_ID":"2025-052H","EPOCH":"2026-03-09T15:32:51.927072","MEAN_MOTION":15.30341923,"ECCENTRICITY":0.0004767,"INCLINATION":97.3991,"RA_OF_ASC_NODE":324.7682,"ARG_OF_PERICENTER":104.8919,"MEAN_ANOMALY":255.2849,"EPHEMERIS_TYPE":0,"CLASSIFICATION_TYPE":"U","NORAD_CAT_ID":63217,"ELEMENT_SET_NO":999,"REV_AT_EPOCH":5485,"BSTAR":0.000706,"MEAN_MOTION_DOT":0.00020683,"MEAN_MOTION_DDOT":0}]
